satname,norad_id,inclination_deg,eccentricity,mean_motion_rev_per_day,perigee_km,apogee_km,l1,l2
STARLINK-1184,45098,53.0541,0.0002415,15.08248685,539.880288090435,543.2224975841764,1 45098U 20006BG  26025.56037839  .00035840  00000+0  22950-2 0  9999,2 45098  53.0541  79.9364 0002415  18.3350 341.7726 15.08248685330526
STARLINK-1193,45100,53.055,0.0001548,15.43993109,433.2836585911118,435.39280092224544,1 45100U 20006BJ  26025.91668981 -.00073241  00000+0 -15881-2 0  9994,2 45100  53.0550  75.3443 0001548  88.0723 158.1928 15.43993109  5746
STARLINK-1143,45179,53.0486,0.0002274,15.53876911,403.8766959624354,406.9618573570606,1 45179U 20012B   26025.91668981  .00172771  00000+0  25874-2 0  9996,2 45179  53.0486 177.6113 0002274 203.2065 223.5005 15.53876911  5966
STARLINK-1202,45183,53.1462,0.0001588,15.27173487,483.17686251443865,485.356361901675,1 45183U 20012F   26025.91668981  .00987166  00000+0  33683-1 0  9999,2 45183  53.1462 237.8546 0001588  96.0301 355.4757 15.27173487  5736
STARLINK-1216,45185,53.1403,0.0001738,15.25856618,487.02100629705456,489.4077500361054,1 45185U 20012H   26025.91668981  .01618262  00000+0  56562-1 0  9991,2 45185  53.1403 237.8610 0001738 106.2296  21.7450 15.25856618  5587
STARLINK-1225,45187,53.1209,0.0001306,15.21520095,500.35638144050336,502.1532785865038,1 45187U 20012K   26025.91668981  .01827929  00000+0  72905-1 0  9994,2 45187  53.1209 238.2101 0001306 102.8250  91.5452 15.21520095  5777
STARLINK-1230,45189,53.1171,0.0001731,15.20722292,502.4694299098737,504.8519082629118,1 45189U 20012M   26025.91668981  .01726754  00000+0  70868-1 0  9996,2 45189  53.1171 238.2316 0001731  97.2725  66.0430 15.20722292  5833
STARLINK-1234,45190,53.0456,0.0011908,15.52434697,401.5370543247991,417.70277619418084,1 45190U 20012N   26025.65105189  .00135372  00000+0  21422-2 0  9997,2 45190  53.0456 174.0918 0011908 167.9476 192.1820 15.52434697329174
STARLINK-1269,45197,53.1233,0.0001275,15.22128381,498.5450181095266,500.29879563077884,1 45197U 20012V   26025.91668981  .00826868  00000+0  33233-1 0  9996,2 45197  53.1233 238.1158 0001275 100.7372  66.1841 15.22128381  5327
STARLINK-1154,45198,53.054,9.42e-05,15.3899096,448.4487469321066,449.73499685157094,1 45198U 20012W   26025.53829123  .00125918  00000+0  31706-2 0  9994,2 45198  53.0540 214.7851 0000942 159.2240 200.8802 15.38990960328634
STARLINK-1199,45201,53.0541,0.0001576,15.06392938,546.1417636918786,548.3246403795602,1 45201U 20012Z   26024.28202615  .00004125  00000+0  29573-3 0  9997,2 45201  53.0541 225.9718 0001576  82.7779 277.3389 15.06392938328429
STARLINK-1209,45206,53.0497,0.0013984,15.43134501,427.33489427172026,446.3950918459068,1 45206U 20012AE  26025.84349389  .00065384  00000+0  14462-2 0  9999,2 45206  53.0497 178.1336 0013984 144.5502 215.6435 15.43134501328288
STARLINK-1210,45207,53.0184,0.0007847,15.85470086,309.74931018499046,320.25352161490355,1 45207U 20012AF  26025.91668981  .00295145  00000+0  11646-2 0  9991,2 45207  53.0184 119.3623 0007847 334.9955 310.5970 15.85470086  5981
STARLINK-1231,45212,53.0481,0.0002216,15.17538607,511.7551737104923,514.8094507496726,1 45212U 20012AL  26024.53763981  .00044437  00000+0  21897-2 0  9995,2 45212  53.0481 217.9833 0002216 135.3539 224.7634 15.17538607328510
STARLINK-1271,45217,53.0539,8.9e-05,15.06473547,546.3698201857287,547.6024921075232,1 45217U 20012AR  26025.52781356  .00016986  00000+0  11542-2 0  9990,2 45217  53.0539 220.3785 0000890 109.5570 250.5516 15.06473547328613
STARLINK-1191,45222,53.1526,0.0001182,15.29220801,477.3299291446865,478.9507531081281,1 45222U 20012AW  26025.91668981  .01017946  00000+0  32553-1 0  9999,2 45222  53.1526 197.6756 0001182  91.4518 337.7360 15.29220801  5835
STARLINK-1212,45223,53.0537,2.81e-05,15.41245148,442.2416965272014,442.6250125811266,1 45223U 20012AX  26025.91668981  .00183217  00000+0  42468-2 0  9991,2 45223  53.0537 193.9798 0000281 153.0884 206.4625 15.41245148  5844
STARLINK-1215,45225,53.1584,0.0002467,15.29355432,476.0466133043619,479.4293020084697,1 45225U 20012AZ  26025.21646438  .00007476  00000+0  27114-3 0  9993,2 45225  53.1584 200.1815 0002467  76.5761 283.5514 15.29355432328824
STARLINK-1221,45227,53.0659,0.0002492,15.40144013,443.9834089945243,447.3844013336584,1 45227U 20012BB  26025.65495435  .00025438  00000+0  63278-3 0  9991,2 45227  53.0659 113.2811 0002492 221.6933 138.3881 15.40144013330078
STARLINK-1222,45228,53.0554,8.73e-05,15.46087971,427.58896771654327,428.7773512163849,1 45228U 20012BC  26025.81199417  .00032054  00000+0  65064-3 0  9998,2 45228  53.0554 187.8714 0000873 108.9708 251.1393 15.46087971328984
STARLINK-1226,45229,53.1618,0.0001469,15.30990721,471.84872450189414,473.8615459912289,1 45229U 20012BD  26025.91668981  .00046135  00000+0  15225-2 0  9995,2 45229  53.1618 197.4829 0001469  97.0151 237.3444 15.30990721  5831
STARLINK-1227,45230,53.1369,0.0001644,15.25399064,488.45832870242975,490.7164364794262,1 45230U 20012BE  26025.91668981  .00750213  00000+0  27241-1 0  9996,2 45230  53.1369 197.7178 0001644  88.3264 137.2844 15.25399064  5782
STARLINK-1246,45235,53.1276,0.0001847,15.23153953,495.06464085679727,497.6040705755986,1 45235U 20012BK  26025.91668981  .00804899  00000+0  31069-1 0  9994,2 45235  53.1276 237.7221 0001847  91.0045  53.6916 15.23153953  5741
STARLINK-1270,45237,53.0515,0.0001999,15.40433329,443.4655582383548,446.19338023275486,1 45237U 20012BM  26025.84536639  .00138776  00000+0  33260-2 0  9992,2 45237  53.0515 191.1219 0001999 164.1038 196.0029 15.40433329329057
STARLINK-1279,45360,53.0487,0.0007201,15.48316902,416.75288889442163,426.545941289437,1 45360U 20019A   26025.06252825  .00122647  00000+0  22538-2 0  9998,2 45360  53.0487 308.9746 0007201  69.7136 290.4645 15.48316902323890
STARLINK-1301,45361,53.0474,0.000978,15.5422273,397.7796650008322,411.04633279867994,1 45361U 20019B   26025.79152056  .00133099  00000+0  19766-2 0  9996,2 45361  53.0474 312.9556 0009780  62.3909 297.8093 15.54222730323915
STARLINK-1262,45366,53.0564,0.000138,15.06398634,546.2600458559564,548.1714432134477,1 45366U 20019G   26025.63289807 -.00007210  00000+0 -46562-3 0  9991,2 45366  53.0564 359.9077 0001380 102.1343 257.9801 15.06398634323246
STARLINK-1273,45367,53.0558,0.0001286,15.28739696,478.69684217479335,480.4606466642581,1 45367U 20019H   26025.91668981  .01223026  00000+0  39615-1 0  9990,2 45367  53.0558 357.2660 0001286  87.1380 238.3600 15.28739696  5830
STARLINK-1276,45368,53.0548,0.0001224,15.06420319,546.301628788593,547.9969388708741,1 45368U 20019J   26025.62552288  .00001948  00000+0  14958-3 0  9992,2 45368  53.0548 359.9419 0001224  82.1052 278.0076 15.06420319323245
STARLINK-1277,45369,53.0772,7.01e-05,15.42263108,438.95386615569896,439.90968929833616,1 45369U 20019K   26025.91668981  .00073385  00000+0  16739-2 0  9995,2 45369  53.0772 356.3859 0000701  48.9676 163.3796 15.42263108  5787
STARLINK-1281,45370,53.0554,0.0001601,15.06402481,546.0952069543009,548.3127011277857,1 45370U 20019L   26025.61447314  .00003464  00000+0  25131-3 0  9997,2 45370  53.0554 359.9915 0001601  87.3116 272.8057 15.06402481323244
STARLINK-1300,45374,53.0561,0.0001175,15.06426883,546.3154478658435,547.9428854150046,1 45374U 20019Q   26025.63657034  .00001064  00000+0  90231-4 0  9993,2 45374  53.0561 359.8903 0001175  65.6827 294.4285 15.06426883323241
STARLINK-1302,45375,53.0776,0.0001446,15.37801405,451.62446035741596,453.59991302220806,1 45375U 20019R   26025.91668981  .00355399  00000+0  90045-2 0  9992,2 45375  53.0776 355.8186 0001446  86.0360 280.4176 15.37801405  5825
STARLINK-1304,45376,53.0556,0.0004058,15.41410499,439.1779831114736,444.71316212741203,1 45376U 20019S   26025.61655250  .00076312  00000+0  17893-2 0  9990,2 45376  53.0556 354.4940 0004058  75.8733 284.2721 15.41410499323316
STARLINK-1305,45377,53.0507,0.0005751,15.4458331,428.68585207378237,436.5195648864774,1 45377U 20019T   26025.86179767  .00031465  00000+0  67218-3 0  9999,2 45377  53.0507 337.3999 0005751  27.9954 332.1360 15.44583310323588
STARLINK-1319,45379,53.0516,0.0005867,15.49905539,413.0154394269639,420.98885570271705,1 45379U 20019V   26025.17796859  .00158208  00000+0  27358-2 0  9997,2 45379  53.0516 340.3014 0005867  40.0808 320.0632 15.49905539323487
STARLINK-1266,45383,53.0543,0.0001277,15.40448443,443.9135533443823,445.65612758243515,1 45383U 20019Z   26025.91668981  .00021525  00000+0  53192-3 0  9995,2 45383  53.0543 335.9281 0001277 103.1215 356.2465 15.40448443  5830
STARLINK-1267,45384,53.0544,0.0007404,15.41879297,435.51453693350686,445.6116680452733,1 45384U 20019AA  26025.82096171  .00104661  00000+0  24022-2 0  9994,2 45384  53.0544 331.4253 0007404  79.3521 280.8317 15.41879297323651
STARLINK-1272,45386,53.0501,0.0006498,15.47430176,419.8266385717234,428.6670165940495,1 45386U 20019AC  26025.77822641  .00114490  00000+0  21730-2 0  9993,2 45386  53.0501 316.3045 0006498  49.6716 310.4857 15.47430176323862
STARLINK-1274,45387,53.0331,0.0009805,15.41032919,436.37137020089267,449.74773664215263,1 45387U 20019AD  26025.74378904  .00085650  00000+0  20273-2 0  9995,2 45387  53.0331 307.2752 0009805  89.8021 270.4106 15.41032919323980
STARLINK-1280,45388,53.0511,0.0006413,15.55539866,396.2365658061899,404.93095305223414,1 45388U 20019AE  26025.11063058  .00155034  00000+0  21891-2 0  9999,2 45388  53.0511 335.0576 0006413  43.9545 316.1975 15.55539866323539
STARLINK-1283,45389,53.0504,0.0011868,15.47211576,416.8137059950859,432.96136503258185,1 45389U 20019AF  26025.82463229  .00113438  00000+0  21659-2 0  9996,2 45389  53.0504 316.2242 0011868  84.0746 276.1613 15.47211576323879
STARLINK-1284,45390,53.0799,0.0001552,15.43848097,433.707453056787,435.8221777802928,1 45390U 20019AG  26025.91668981  .00309841  00000+0  64685-2 0  9991,2 45390  53.0799 335.5752 0001552  81.2749 177.5604 15.43848097  5835
